UNKNOWN                 
1 89037U          20356.72632231  .00000556  00000+0  35589-3 0  9997
2 89037  98.4111 345.3596 0139409 276.9843  81.5486 14.02480158266923
UNKNOWN                 
1 89048U          20356.79512180  .00004274  00000+0  10161-2 0  9995
2 89048  98.9152 199.9998 0007682 114.9188 245.2806 14.54415212373463
UNKNOWN                 
1 89067U          20357.34412272  .00004451  00000+0  14440-3 0  9991
2 89067  80.9885 111.2080 0606335  73.7509 292.9476 14.37501078319229
UNKNOWN                 
1 89074U          20357.23577346  .00001247  00000+0  15336-2 0  9995
2 89074 100.2902 342.9578 0058079 280.2039  91.4297 13.67022819340351
UNKNOWN                 
1 89101U          20357.17713511  .00000119  00000+0  48216-3 0  9996
2 89101 100.2407 343.6728 0147290 211.0280 148.2063 13.03604015318127
UNKNOWN                 
1 89123U          20356.16105813  .00001311  00000+0  66516-3 0  9996
2 89123  99.0706  75.6328 0062217  35.5938 324.9361 14.16800408269139
UNKNOWN                 
1 89127U          20357.21688026  .00004258  00000+0  48068-3 0  9994
2 89127  74.0721 341.9967 0041588 147.8656 212.5072 14.86235889221886
UNKNOWN                 
1 89132U          20357.22704492  .00003240  00000+0  28266-2 0  9994
2 89132  63.3874 335.1408 3073023 318.5696  21.8243  8.72116504165631
UNKNOWN                 
1 89135U          20356.78501997  .00000896  00000+0  46179-3 0  9990
2 89135  71.0617 176.9765 0137604 139.9246 221.2127 14.12953198364694
UNKNOWN                 
1 89140U          20357.06393264  .00007363  00000+0  22429-2 0  9991
2 89140  98.9040  30.4675 0014628 165.0095 195.1529 14.42241847228131
UNKNOWN                 
1 89143U          20357.19824516  .00098323  00000+0  19514-1 0  9993
2 89143  65.1505 160.0430 0488390 228.2581 127.5762 14.06460147143891
UNKNOWN                 
1 89146U          20357.31757883  .00000311  00000+0  89504-4 0  9991
2 89146  98.1398 299.2234 0118777 253.5096 105.3020 14.47499992365182
UNKNOWN                 
1 89158U          20357.19928095  .00006668  00000+0  76841-3 0  9995
2 89158  98.8524 352.5910 0094076 296.8340  62.3275 14.82916824221096
UNKNOWN                 
1 89161U          20357.37113002  .00000866  00000+0  13013-3 0  9999
2 89161  97.7946  38.1934 0133464 289.8674  68.8192 14.71304290278756
UNKNOWN                 
1 89171U          20357.13423955  .00007167  00000+0  69041-3 0  9998
2 89171  99.0220 141.4500 0061342   5.0867 355.0958 14.91901054282862
UNKNOWN                 
1 89172U 81053    20356.21588172  .00001114  00000+0  27318-3 0  9994
2 89172  82.0806  59.6437 0421497 260.6509  94.6788 14.09602050343685
UNKNOWN                 
1 89177U          20357.22885846  .00000048  00000+0  34628-4 0  9990
2 89177  82.9200 175.4535 0033020 153.3255 206.9607 13.73387173813608
UNKNOWN                 
1 89183U          20356.57648683  .00000126  00000+0  15555-3 0  9994
2 89183  99.1775 288.4216 0133593 301.6104  57.2068 13.79028301356331
UNKNOWN                 
1 89184U          20357.37427409  .00001181  00000+0  40062-3 0  9998
2 89184  98.4945 188.4154 0019856 270.5042  89.3870 14.38440651228903
UNKNOWN                 
1 89195U          20356.13095501  .00000695  00000+0  32357-3 0  9994
2 89195  98.8115  52.4521 0031370 117.3997 243.0379 14.23522230268385
UNKNOWN                 
1 89206U          20356.98438716  .00001364  00000+0  60434-3 0  9990
2 89206  98.7393  14.2516 0029338  66.3683 294.0571 14.24549806226610
UNKNOWN                 
1 89213U          20357.28259086  .00000235  00000+0  18240-3 0  9997
2 89213  98.8594 289.2565 0234684  48.5841 313.5227 13.89017988200326
UNKNOWN                 
1 89218U          20356.53218266  .00000465  00000+0  48153-3 0  9995
2 89218 100.3453 108.3672 0103523   0.2330 359.8850 13.79684909342637
UNKNOWN                 
1 89255U          20356.27214490  .00000458  00000+0  64467-3 0  9990
2 89255  98.6257 355.1897 0365198  11.2077 349.6919 13.37139636251962
UNKNOWN                 
1 89261U          20356.40165507  .00000118  00000+0  51623-4 0  9990
2 89261  98.2780  42.2414 0012568 250.2299 109.7534 14.39098447272188
UNKNOWN                 
1 89281U          20356.97797631  .00002149  00000+0  65359-3 0  9999
2 89281  99.3322  58.1784 0020233 151.9702 334.1261 14.43141666371698
UNKNOWN                 
1 89285U          20357.34995563  .00170550  44313-5  67344-2 0  9997
2 89285  62.9105   9.3455 2142167  77.1522 305.8703 11.10520697153311
UNKNOWN                 
1 89304U          20357.51931196  .00000951  00000+0  10204-1 0  9998
2 89304  85.0979 167.4904 2510852  60.2468  14.1198  8.84334065276723
UNKNOWN                 
1 89314U          20355.61499300  .00000160  00000+0  33238-3 0  9990
2 89314  18.8551 228.6611 7151150 296.7706   8.8726  2.37068625 44095
UNKNOWN                 
1 89327U          20357.26431975  .00000832  00000+0  71061-3 0  9993
2 89327  82.5401 351.9799 0008847 228.4500 131.5903 13.86042653222637
UNKNOWN                 
1 89341U          20357.20295285  .00041015  00000+0  87865-3 0  9992
2 89341  98.1874 344.9564 0011469 121.4238 238.8131 15.44591625341490
UNKNOWN                 
1 89347U          20356.42693594  .00006406  00000+0  12622-2 0  9999
2 89347  86.2824  55.5052 0045346 270.1463  89.4552 14.61747068231283
UNKNOWN                 
1 89349U          20356.70012289  .00000066  00000+0  20732-3 0  9996
2 89349  90.2837 324.5679 0032178   0.5463 359.5686 12.95478509243437
UNKNOWN                 
1 89379U          20357.42917223  .00002777  00000+0  45966-2 0  9997
2 89379 100.5223 235.3458 0045682 215.8758 143.9302 13.47402670335122
UNKNOWN                 
1 89381U          20356.58511530  .00006765  00000+0  13012-2 0  9995
2 89381  98.7862 119.9986 0072041  23.1720 337.2701 14.62304327209740
UNKNOWN                 
1 89389U          20357.41179116  .00001927  00000+0  29925-3 0  9992
2 89389  74.0517  45.1219 0083608 201.8655 157.8943 14.71517033274683
UNKNOWN                 
1 89390U          20356.07820405  .00006026  00000+0  61039-3 0  9996
2 89390  98.9645  99.0542 0039319 341.3930  18.5845 14.90822690362394
UNKNOWN                 
1 89391U          20356.44168315  .00001623  00000+0  15800-3 0  9996
2 89391  97.3938 174.2298 0205603 356.3235   3.6456 14.79310067156326
UNKNOWN                 
1 89395U          20357.10240388 -.00000322  00000+0 -31815-2 0  9995
2 89395 102.3922  46.0189 0221697 338.2179  47.5412 12.01120582306603
UNKNOWN                 
1 89400U          20330.48678805 -.00000018  00000-0  00000-0 0  9995
2 89400  63.1725  10.5283 2284814  94.5787 291.7266  8.14615812254353
UNKNOWN                 
1 89403U          20356.89667633 -.00000054  00000+0 -21405-3 0  9993
2 89403  90.2813 323.0014 0027749 354.0560  34.2352 12.96396767242243
UNKNOWN                 
1 89438U          20356.84010922  .00016807  00000+0  13525-2 0  9993
2 89438  86.3655  26.2395 0016327 128.9935 231.2754 14.99769599275242
UNKNOWN                 
1 89453U          20357.48599460  .00006903  00000+0  49856-3 0  9993
2 89453  97.2619 187.7854 0150089 198.5291 161.0432 14.95679011234945
UNKNOWN                 
1 89460U          20357.32049954  .00000558  00000+0  11909-2 0  9999
2 89460 100.2983 123.5310 0056203 285.9312  73.5624 13.34888206190531
UNKNOWN                 
1 89483U          20357.10575175  .00001576  00000+0  18374-3 0  9994
2 89483  99.4740 302.5232 0268704 203.6505 155.2152 14.64639491230353
UNKNOWN                 
1 89484U          20357.34173259  .00003472  00000+0  67322-1 0  9990
2 89484  85.3172 219.4671 2343638 104.4275 282.6236  8.82937748193517
UNKNOWN                 
1 89490U          20357.16545943  .00001740  00000+0  86052-3 0  9999
2 89490  98.3574 347.3562 0133021 132.3805 228.8720 14.13989396222198
UNKNOWN                 
1 89492U          20356.98883014  .00001571  00000+0  11797-2 0  9999
2 89492  82.5306  92.9780 0031365 135.3936 224.9762 13.93659386313856
UNKNOWN                 
1 89493U          20357.26782127  .00000608  00000+0  38349-3 0  9998
2 89493  99.1607  21.4387 0092853  86.3141 274.8639 14.05919574208040
UNKNOWN                 
1 89494U          20355.28377268  .00000854  00000+0  52848-3 0  9998
2 89494  99.1610  19.4420 0093331  91.8212 269.3647 14.05899603207623
UNKNOWN                 
1 89496U          20357.48534022  .00005920  00000+0  77207-3 0  9992
2 89496  98.9030   2.5154 0094920   6.5522 353.6902 14.77857934210420
